METEOSAT-5 (MOP-2)      
1 21140U 91015B   10291.17148290 -.00000168  00000-0  10000-3 0  3959
2 21140  11.9441  43.8817 0004808 127.0313 233.0111  0.98452383 73887
METEOSAT-6 (MOP-3)      
1 22912U 93073B   10288.85534509 -.00000029  00000-0  00000+0 0  8244
2 22912   9.4674  54.0746 0000906  27.7611 317.8290  1.00274620 60337
HIMAWARI-5 (GMS-5)      
1 23522U 95011B   10290.36709700 -.00000008  00000-0  10000-3 0  4790
2 23522   8.6585  57.1117 0007121 350.1387   9.8778  0.99401793 56785
GOES 10                 
1 24786U 97019A   10290.11724078 -.00000175  00000-0  10000-3 0  6383
2 24786   4.7082  67.2891 0007328  50.1597 310.0291  0.99073939 49356
ORBVIEW 2 (SEASTAR)     
1 24883U 97037A   10291.74059167  .00000055  00000-0  35822-4 0  2585
2 24883  98.3489  60.2596 0003075 106.1708 253.9823 14.32202582703443
METEOSAT-7              
1 24932U 97049B   10290.97505087  .00000064  00000-0  00000+0 0  2680
2 24932   6.3591  63.6133 0000692  45.8171 325.4622  1.00266978 48084
NOAA 15                 
1 25338U 98030A   10291.11402197  .00000065  00000-0  46448-4 0  5637
2 25338  98.6327 275.9147 0011694  78.3847 281.8625 14.24860344646252
GOES 11                 
1 26352U 00022A   10291.14237829  .00000081  00000-0  10000-3 0   490
2 26352   0.1922 260.0289 0005001 311.7960  90.9903  1.00282000 38299
FENGYUN 2B              
1 26382U 00032A   10288.63760724 -.00000042  00000-0  10000-3 0  3197
2 26382   5.5059  66.4360 0001747 213.2190 146.8618  1.00108276 37727
NOAA 16                 
1 26536U 00055A   10291.11972897  .00000259  00000-0  16513-3 0   399
2 26536  99.1668 311.4611 0010357 356.8817   3.2322 14.12581094519185
GOES 12                 
1 26871U 01031A   10290.34276998 -.00000292  00000-0  10000-3 0  8008
2 26871   0.8455  80.5166 0002258 169.3626 199.7670  1.00266087 33896
FENGYUN 1D              
1 27431U 02024B   10291.74971839  .00000096  00000-0  79451-4 0  4390
2 27431  98.6819 267.4413 0015970 106.9595 253.3326 14.09302265433628
NOAA 17                 
1 27453U 02032A   10291.36535570  .00000198  00000-0  10382-3 0   294
2 27453  98.4170 336.7579 0012431 133.7024 226.5189 14.24200330432239
METEOSAT-8 (MSG-1)      
1 27509U 02040B   10290.12056307  .00000053  00000-0  10000-3 0  5904
2 27509   0.9320  52.0356 0001457 256.1666 129.9132  1.00270780 29888
KALPANA-1 (METSAT 1)    
1 27525U 02043A   10291.56989438 -.00000082  00000-0  10000-3 0  1699
2 27525   0.0552  63.1571 0004971  56.6214 186.3789  1.00272427 29696
INSAT-3A                
1 27714U 03013A   10286.82253679 -.00000274  00000-0  10000-3 0  3270
2 27714   0.0971  79.4551 0003809  52.0788 280.3447  1.00271026 27557
FENGYUN 2C              
1 28451U 04042A   10291.70968037 -.00000359  00000-0  10000-3 0  9838
2 28451   2.5815  72.4250 0000889 355.2117 338.4846  1.00269484 21948
HIMAWARI 6 (MTSAT-1R)   
1 28622U 05006A   10287.62609277 -.00000296  00000-0  10000-3 0  4232
2 28622   0.0617  34.1374 0002438 313.8252  40.5470  1.00270301 20612
NOAA 18                 
1 28654U 05018A   10291.36871151 -.00000150  00000-0 -57967-4 0  5198
2 28654  98.9632 237.3481 0015286  67.0625 293.2160 14.11397222278811
METEOSAT-9 (MSG-2)      
1 28912U 05049B   10291.11660788 -.00000003  00000-0  10000-3 0  7626
2 28912   0.3513 308.4603 0000692 219.9490 260.8090  1.00280052 17743
MTSAT-2                 
1 28937U 06004A   10291.52512326 -.00000248  00000-0  10000-3 0  8345
2 28937   0.0486  38.3476 0001808 134.7079 187.8401  1.00269519 17132
FORMOSAT 3A             
1 29047U 06011A   10291.85145915  .00000311  00000-0  14240-3 0  3433
2 29047  71.9768 106.6108 0051849  21.9988 338.3524 14.27153925237445
FORMOSAT 3B             
1 29048U 06011B   10291.73274221  .00000390  00000-0  17471-3 0  4138
2 29048  71.9718  21.7227 0045969 332.8243  27.0458 14.27180776239909
FORMOSAT 3C             
1 29049U 06011C   10290.76532124  .00000361  00000-0  16364-3 0  3610
2 29049  72.0208 175.4988 0034765  33.4266 326.9052 14.27193609235544
FORMOSAT 3D             
1 29050U 06011D   10291.63015136  .00001106  00000-0  26646-3 0  6578
2 29050  72.0115 307.2891 0055295 243.7013 115.8417 14.54294179242247
FORMOSAT 3E             
1 29051U 06011E   10291.42881908  .00000373  00000-0  16522-3 0  4164
2 29051  72.0048  82.3185 0070834 263.7847  95.5212 14.27186542238227
FORMOSAT 3F             
1 29052U 06011F   10291.54445570  .00000360  00000-0  16273-3 0  4382
2 29052  72.0332 145.7077 0040983   0.7520 359.3666 14.27208579236549
GOES 13                 
1 29155U 06018A   10290.44142523 -.00000258  00000-0  10000-3 0  3189
2 29155   0.1688  73.2698 0003738  25.1066  11.4337  1.00279154 16143
METOP-A                 
1 29499U 06044A   10291.74431309 -.00000075  00000-0 -14165-4 0  2450
2 29499  98.7263 349.1182 0001490  60.9577 299.1734 14.21476336207423
FENGYUN 2D              
1 29640U 06053A   10290.75001122 -.00000201  00000-0  10000-3 0   130
2 29640   0.9448  86.1892 0001449 235.3805  60.7882  1.00268135 14198
FENGYUN 3A              
1 32958U 08026A   10291.63505660  .00000167  00000-0  10000-3 0  1650
2 32958  98.7179   1.9767 0001065 119.4215 240.7061 14.19627052124087
NOAA 19                 
1 33591U 09005A   10291.38356298  .00000390  00000-0  24068-3 0  7153
2 33591  98.7991 230.9405 0013428 302.9714  57.0154 14.11095523 87281
GOES 14                 
1 35491U 09033A   10291.72977397 -.00000094  00000-0  10000-3 0  6794
2 35491   0.3683  81.9593 0002178  19.9530  83.0940  1.00271202  4827
METEOR-M 1              
1 35865U 09049A   10291.63647821  .00000176  00000-0  10000-3 0  7524
2 35865  98.7427 344.4581 0003246  20.2394 339.8875 14.21832182 56264
GOES 15                 
1 36411U 10008A   10288.14109571 -.00000199  00000-0  10000-3 0  3023
2 36411   0.3138 258.7919 0004945 289.3590 156.9365  1.00269789  2280
COMS 1                  
1 36744U 10032A   10287.69303361  .00000000  00000-0  10000-3 0   488
2 36744   0.0039  11.7436 0000312 335.9074  53.1059  1.00262576  1257
